[{"OBJECT_NAME":"1998-067XK","OBJECT_ID":"1998-067XK","EPOCH":"2025-10-07T23:33:22.337856","MEAN_MOTION":15.53976405,"ECCENTRICITY":0.00011541,"INCLINATION":51.6312,"RA_OF_ASC_NODE":107.6777,"ARG_OF_PERICENTER":281.4095,"MEAN_ANOMALY":78.6766,"EPHEMERIS_TYPE":0,"CLASSIFICATION_TYPE":"U","NORAD_CAT_ID":65731,"ELEMENT_SET_NO":999,"REV_AT_EPOCH":288,"BSTAR":0.001129158,"MEAN_MOTION_DOT":0.00074555,"MEAN_MOTION_DDOT":0},{"OBJECT_NAME":"RSP-03","OBJECT_ID":"1998-067XL","EPOCH":"2025-10-08T10:18:50.323104","MEAN_MOTION":15.54396435,"ECCENTRICITY":0.0001374,"INCLINATION":51.6307,"RA_OF_ASC_NODE":105.4211,"ARG_OF_PERICENTER":286.3512,"MEAN_ANOMALY":73.7327,"EPHEMERIS_TYPE":0,"CLASSIFICATION_TYPE":"U","NORAD_CAT_ID":65732,"ELEMENT_SET_NO":999,"REV_AT_EPOCH":296,"BSTAR":0.0011546,"MEAN_MOTION_DOT":0.0007746,"MEAN_MOTION_DDOT":0},{"OBJECT_NAME":"1998-067XM","OBJECT_ID":"1998-067XM","EPOCH":"2025-10-08T11:46:31.976832","MEAN_MOTION":15.54994156,"ECCENTRICITY":0.0001895,"INCLINATION":51.6312,"RA_OF_ASC_NODE":105.0783,"ARG_OF_PERICENTER":115.7938,"MEAN_ANOMALY":244.3249,"EPHEMERIS_TYPE":0,"CLASSIFICATION_TYPE":"U","NORAD_CAT_ID":65733,"ELEMENT_SET_NO":999,"REV_AT_EPOCH":297,"BSTAR":0.0013432,"MEAN_MOTION_DOT":0.0009237,"MEAN_MOTION_DDOT":0}]
