1998-067XK              
1 65731U 98067XK  25280.98150854  .00074555  00000+0  11292-2 0  9991
2 65731  51.6312 107.6777 0001154 281.4095  78.6766 15.53976405  2880
RSP-03                  
1 65732U 98067XL  25281.42974911  .00077460  00000+0  11546-2 0  9990
2 65732  51.6307 105.4211 0001374 286.3512  73.7327 15.54396435  2964
1998-067XM              
1 65733U 98067XM  25281.49064788  .00092370  00000+0  13432-2 0  9993
2 65733  51.6312 105.0783 0001895 115.7938 244.3249 15.54994156  2970
